start=new Date('2022-02-16T00:00:00.000Z').valueOf();
sats=[{"APOAPSIS":"548.164","GP_ID":"196059684","CENTER_NAME":"EARTH","OBJECT_TYPE":"PAYLOAD","TIME_SYSTEM":"UTC","REV_AT_EPOCH":"8080","OBJECT_ID":"2020-062J","EPHEMERIS_TYPE":"0","MEAN_MOTION_DOT":"0.00001311","REF_FRAME":"TEME","RCS_SIZE":"LARGE","RA_OF_ASC_NODE":"193.5058","TLE_LINE1":"1 46333U 20062J   22046.81562244  .00001311  00000-0  10688-3 0  9997","NORAD_CAT_ID":"46333","TLE_LINE2":"2 46333  53.0543 193.5058 0001373  76.5275 283.5866 15.06400005 80803","ELEMENT_SET_NO":"999","BSTAR":"0.00010688000000","OBJECT_NAME":"STARLINK-1723","MEAN_MOTION":"15.06400005","SITE":"AFETR","PERIAPSIS":"546.263","FILE":"3301463","CLASSIFICATION_TYPE":"U","COUNTRY_CODE":"US","SEMIMAJOR_AXIS":"6925.349","INCLINATION":"53.0543","DECAY_DATE":null,"PERIOD":"95.592","ECCENTRICITY":"0.00013730","EPOCH":"2022-02-15T19:34:29.778816","ARG_OF_PERICENTER":"76.5275","MEAN_MOTION_DDOT":"0.0000000000000","MEAN_ELEMENT_THEORY":"SGP4","LAUNCH_DATE":"2020-09-03","MEAN_ANOMALY":"283.5866"},{"RCS_SIZE":"LARGE","TLE_LINE2":"2 46334  53.0533 173.3036 0001496  60.1798 299.9340 15.06383126 81094","NORAD_CAT_ID":"46334","RA_OF_ASC_NODE":"173.3036","TLE_LINE1":"1 46334U 20062K   22046.85707824 -.00000811  00000-0 -35585-4 0  9997","OBJECT_ID":"2020-062K","REV_AT_EPOCH":"8109","TIME_SYSTEM":"UTC","OBJECT_TYPE":"PAYLOAD","CENTER_NAME":"EARTH","GP_ID":"196057931","APOAPSIS":"548.301","REF_FRAME":"TEME","MEAN_MOTION_DOT":"-0.00000811","EPHEMERIS_TYPE":"0","ECCENTRICITY":"0.00014960","DECAY_DATE":null,"PERIOD":"95.593","INCLINATION":"53.0533","COUNTRY_CODE":"US","SEMIMAJOR_AXIS":"6925.400","MEAN_ANOMALY":"299.9340","LAUNCH_DATE":"2020-09-03","MEAN_ELEMENT_THEORY":"SGP4","MEAN_MOTION_DDOT":"0.0000000000000","ARG_OF_PERICENTER":"60.1798","EPOCH":"2022-02-15T20:34:11.559936","MEAN_MOTION":"15.06383126","OBJECT_NAME":"STARLINK-1725","BSTAR":"-0.00003558500000","ELEMENT_SET_NO":"999","CLASSIFICATION_TYPE":"U","FILE":"3301463","PERIAPSIS":"546.229","SITE":"AFETR"},{"FILE":"3301463","CLASSIFICATION_TYPE":"U","SITE":"AFETR","PERIAPSIS":"546.102","BSTAR":"-0.00004367500000","OBJECT_NAME":"STARLINK-1727","MEAN_MOTION":"15.06381795","ELEMENT_SET_NO":"999","MEAN_ELEMENT_THEORY":"SGP4","LAUNCH_DATE":"2020-09-03","MEAN_ANOMALY":"293.9574","EPOCH":"2022-02-15T20:16:58.756800","ARG_OF_PERICENTER":"66.1592","MEAN_MOTION_DDOT":"0.0000000000000","DECAY_DATE":null,"PERIOD":"95.593","ECCENTRICITY":"0.00016860","SEMIMAJOR_AXIS":"6925.404","COUNTRY_CODE":"US","INCLINATION":"53.0553","REF_FRAME":"TEME","EPHEMERIS_TYPE":"0","MEAN_MOTION_DOT":"-0.00000932","REV_AT_EPOCH":"8081","OBJECT_ID":"2020-062L","CENTER_NAME":"EARTH","GP_ID":"196058183","APOAPSIS":"548.437","OBJECT_TYPE":"PAYLOAD","TIME_SYSTEM":"UTC","NORAD_CAT_ID":"46335","TLE_LINE2":"2 46335  53.0553 193.3659 0001686  66.1592 293.9574 15.06381795 80811","RA_OF_ASC_NODE":"193.3659","TLE_LINE1":"1 46335U 20062L   22046.84512450 -.00000932  00000-0 -43675-4 0  9999","RCS_SIZE":"LARGE"},{"PERIAPSIS":"546.322","SITE":"AFETR","CLASSIFICATION_TYPE":"U","FILE":"3301463","ELEMENT_SET_NO":"999","MEAN_MOTION":"15.06376918","BSTAR":"-0.00000520000000","OBJECT_NAME":"STARLINK-1738","MEAN_MOTION_DDOT":"0.0000000000000","EPOCH":"2022-02-15T15:17:05.469504","ARG_OF_PERICENTER":"69.8921","LAUNCH_DATE":"2020-09-03","MEAN_ANOMALY":"290.2217","MEAN_ELEMENT_THEORY":"SGP4","COUNTRY_CODE":"US","INCLINATION":"53.0549","SEMIMAJOR_AXIS":"6925.419","DECAY_DATE":null,"ECCENTRICITY":"0.00013900","PERIOD":"95.594","MEAN_MOTION_DOT":"-0.00000359","EPHEMERIS_TYPE":"0","REF_FRAME":"TEME","OBJECT_TYPE":"PAYLOAD","TIME_SYSTEM":"UTC","CENTER_NAME":"EARTH","GP_ID":"196058934","APOAPSIS":"548.247","OBJECT_ID":"2020-062M","REV_AT_EPOCH":"8105","RA_OF_ASC_NODE":"174.3113","TLE_LINE1":"1 46336U 20062M   22046.63686886 -.00000359  00000-0 -52000-5 0  9998","TLE_LINE2":"2 46336  53.0549 174.3113 0001390  69.8921 290.2217 15.06376918 81051","NORAD_CAT_ID":"46336","RCS_SIZE":"LARGE"},{"OBJECT_NAME":"STARLINK-1750","BSTAR":"-0.00000893940000","MEAN_MOTION":"15.06379603","ELEMENT_SET_NO":"999","FILE":"3301463","CLASSIFICATION_TYPE":"U","SITE":"AFETR","PERIAPSIS":"546.220","DECAY_DATE":null,"PERIOD":"95.593","ECCENTRICITY":"0.00015250","COUNTRY_CODE":"US","SEMIMAJOR_AXIS":"6925.411","INCLINATION":"53.0555","MEAN_ELEMENT_THEORY":"SGP4","MEAN_ANOMALY":"304.3960","LAUNCH_DATE":"2020-09-03","ARG_OF_PERICENTER":"55.7174","EPOCH":"2022-02-15T20:24:56.638656","MEAN_MOTION_DDOT":"0.0000000000000","REV_AT_EPOCH":"8109","OBJECT_ID":"2020-062N","CENTER_NAME":"EARTH","GP_ID":"196059185","APOAPSIS":"548.332","TIME_SYSTEM":"UTC","OBJECT_TYPE":"PAYLOAD","REF_FRAME":"TEME","EPHEMERIS_TYPE":"0","MEAN_MOTION_DOT":"-0.00000415","RCS_SIZE":"LARGE","NORAD_CAT_ID":"46337","TLE_LINE2":"2 46337  53.0555 173.3306 0001525  55.7174 304.3960 15.06379603 81096","TLE_LINE1":"1 46337U 20062N   22046.85065554 -.00000415  00000-0 -89394-5 0  9995","RA_OF_ASC_NODE":"173.3306"},{"MEAN_MOTION_DDOT":"0.0000000000000","ARG_OF_PERICENTER":"66.4618","EPOCH":"2022-02-15T20:01:02.719200","LAUNCH_DATE":"2020-09-03","MEAN_ANOMALY":"293.6524","MEAN_ELEMENT_THEORY":"SGP4","COUNTRY_CODE":"US","SEMIMAJOR_AXIS":"6925.361","INCLINATION":"53.0550","PERIOD":"95.592","DECAY_DATE":null,"ECCENTRICITY":"0.00014570","PERIAPSIS":"546.217","SITE":"AFETR","CLASSIFICATION_TYPE":"U","FILE":"3301463","ELEMENT_SET_NO":"999","MEAN_MOTION":"15.06395850","OBJECT_NAME":"STARLINK-1752","BSTAR":"0.00014894000000","TLE_LINE1":"1 46338U 20062P   22046.83405925  .00001937  00000-0  14894-3 0  9993","RA_OF_ASC_NODE":"193.4089","TLE_LINE2":"2 46338  53.0550 193.4089 0001457  66.4618 293.6524 15.06395850 80805","NORAD_CAT_ID":"46338","RCS_SIZE":"LARGE","MEAN_MOTION_DOT":"0.00001937","EPHEMERIS_TYPE":"0","REF_FRAME":"TEME","TIME_SYSTEM":"UTC","OBJECT_TYPE":"PAYLOAD","GP_ID":"196058431","CENTER_NAME":"EARTH","APOAPSIS":"548.235","OBJECT_ID":"2020-062P","REV_AT_EPOCH":"8080"},{"CLASSIFICATION_TYPE":"U","FILE":"3301463","PERIAPSIS":"546.175","SITE":"AFETR","MEAN_MOTION":"15.06392340","BSTAR":"-0.00007432300000","OBJECT_NAME":"STARLINK-1759","ELEMENT_SET_NO":"999","LAUNCH_DATE":"2020-09-03","MEAN_ANOMALY":"286.9134","MEAN_ELEMENT_THEORY":"SGP4","MEAN_MOTION_DDOT":"0.0000000000000","EPOCH":"2022-02-15T20:58:04.199808","ARG_OF_PERICENTER":"73.2023","DECAY_DATE":null,"PERIOD":"95.593","ECCENTRICITY":"0.00015340","COUNTRY_CODE":"US","INCLINATION":"53.0554","SEMIMAJOR_AXIS":"6925.372","REF_FRAME":"TEME","MEAN_MOTION_DOT":"-0.00001388","EPHEMERIS_TYPE":"0","OBJECT_ID":"2020-062R","REV_AT_EPOCH":"8081","OBJECT_TYPE":"PAYLOAD","TIME_SYSTEM":"UTC","APOAPSIS":"548.299","GP_ID":"196058683","CENTER_NAME":"EARTH","TLE_LINE2":"2 46340  53.0554 193.2270 0001534  73.2023 286.9134 15.06392340 80818","NORAD_CAT_ID":"46340","RA_OF_ASC_NODE":"193.2270","TLE_LINE1":"1 46340U 20062R   22046.87365972 -.00001388  00000-0 -74323-4 0  9993","RCS_SIZE":"LARGE"},{"RCS_SIZE":"LARGE","NORAD_CAT_ID":"46341","TLE_LINE2":"2 46341  53.0537 173.7988 0001496  68.9721 291.1428 15.06398131 81080","RA_OF_ASC_NODE":"173.7988","TLE_LINE1":"1 46341U 20062S   22046.74744093  .00005188  00000-0  36692-3 0  9991","REV_AT_EPOCH":"8108","OBJECT_ID":"2020-062S","GP_ID":"196059434","APOAPSIS":"548.255","CENTER_NAME":"EARTH","TIME_SYSTEM":"UTC","OBJECT_TYPE":"PAYLOAD","REF_FRAME":"TEME","EPHEMERIS_TYPE":"0","MEAN_MOTION_DOT":"0.00005188","PERIOD":"95.592","DECAY_DATE":null,"ECCENTRICITY":"0.00014960","COUNTRY_CODE":"US","SEMIMAJOR_AXIS":"6925.354","INCLINATION":"53.0537","MEAN_ELEMENT_THEORY":"SGP4","MEAN_ANOMALY":"291.1428","LAUNCH_DATE":"2020-09-03","ARG_OF_PERICENTER":"68.9721","EPOCH":"2022-02-15T17:56:18.896352","MEAN_MOTION_DDOT":"0.0000000000000","OBJECT_NAME":"STARLINK-1760","BSTAR":"0.00036692000000","MEAN_MOTION":"15.06398131","ELEMENT_SET_NO":"999","FILE":"3301463","CLASSIFICATION_TYPE":"U","SITE":"AFETR","PERIAPSIS":"546.183"},{"RCS_SIZE":"LARGE","TLE_LINE1":"1 46342U 20062T   22046.85986156  .00001273  00000-0  10435-3 0  9990","RA_OF_ASC_NODE":"193.2925","TLE_LINE2":"2 46342  53.0529 193.2925 0001246  69.6613 290.4509 15.06393528 80818","NORAD_CAT_ID":"46342","TIME_SYSTEM":"UTC","OBJECT_TYPE":"PAYLOAD","GP_ID":"196059685","CENTER_NAME":"EARTH","APOAPSIS":"548.096","OBJECT_ID":"2020-062T","REV_AT_EPOCH":"8081","MEAN_MOTION_DOT":"0.00001273","EPHEMERIS_TYPE":"0","REF_FRAME":"TEME","COUNTRY_CODE":"US","INCLINATION":"53.0529","SEMIMAJOR_AXIS":"6925.368","DECAY_DATE":null,"ECCENTRICITY":"0.00012460","PERIOD":"95.593","MEAN_MOTION_DDOT":"0.0000000000000","ARG_OF_PERICENTER":"69.6613","EPOCH":"2022-02-15T20:38:12.038784","MEAN_ANOMALY":"290.4509","LAUNCH_DATE":"2020-09-03","MEAN_ELEMENT_THEORY":"SGP4","ELEMENT_SET_NO":"999","MEAN_MOTION":"15.06393528","OBJECT_NAME":"STARLINK-1762","BSTAR":"0.00010435000000","PERIAPSIS":"546.370","SITE":"AFETR","CLASSIFICATION_TYPE":"U","FILE":"3301463"},{"MEAN_ANOMALY":"289.9983","LAUNCH_DATE":"2020-09-03","MEAN_ELEMENT_THEORY":"SGP4","MEAN_MOTION_DDOT":"0.0000000000000","EPOCH":"2022-02-15T17:19:09.278688","ARG_OF_PERICENTER":"70.1142","PERIOD":"95.593","DECAY_DATE":null,"ECCENTRICITY":"0.00012600","INCLINATION":"53.0548","COUNTRY_CODE":"US","SEMIMAJOR_AXIS":"6925.375","CLASSIFICATION_TYPE":"U","FILE":"3301463","PERIAPSIS":"546.367","SITE":"AFETR","MEAN_MOTION":"15.06391426","BSTAR":"0.00013354000000","OBJECT_NAME":"STARLINK-1764","ELEMENT_SET_NO":"999","TLE_LINE2":"2 46343  53.0548 173.9287 0001260  70.1142 289.9983 15.06391426 81079","NORAD_CAT_ID":"46343","TLE_LINE1":"1 46343U 20062U   22046.72163517  .00001708  00000-0  13354-3 0  9991","RA_OF_ASC_NODE":"173.9287","RCS_SIZE":"LARGE","REF_FRAME":"TEME","MEAN_MOTION_DOT":"0.00001708","EPHEMERIS_TYPE":"0","OBJECT_ID":"2020-062U","REV_AT_EPOCH":"8107","OBJECT_TYPE":"PAYLOAD","TIME_SYSTEM":"UTC","APOAPSIS":"548.112","GP_ID":"196057932","CENTER_NAME":"EARTH"}];
